start=new Date('2023-02-04T00:00:00.000Z').valueOf();
sats=[{"TIME_SYSTEM":"UTC","NORAD_CAT_ID":"52000","ECCENTRICITY":"0.00013400","INCLINATION":"53.2171","BSTAR":"0.00005286600000","OBJECT_TYPE":"PAYLOAD","OBJECT_ID":"2022-025AW","LAUNCH_DATE":"2022-03-09","ARG_OF_PERICENTER":"93.2126","REV_AT_EPOCH":"5181","COUNTRY_CODE":"US","EPOCH":"2023-02-03T08:54:26.716320","GP_ID":"224316912","SITE":"AFETR","MEAN_ELEMENT_THEORY":"SGP4","PERIAPSIS":"538.813","CENTER_NAME":"EARTH","MEAN_MOTION_DDOT":"0.0000000000000","MEAN_MOTION":"15.08841624","APOAPSIS":"540.667","OBJECT_NAME":"STARLINK-3653","REF_FRAME":"TEME","EPHEMERIS_TYPE":"0","TLE_LINE1":"1 52000U 22025AW  23034.37114255  .00000554  00000-0  52866-4 0  9993","RA_OF_ASC_NODE":"53.3262","PERIOD":"95.437","RCS_SIZE":"LARGE","MEAN_MOTION_DOT":"0.00000554","TLE_LINE2":"2 52000  53.2171  53.3262 0001340  93.2126 266.9020 15.08841624 51819","SEMIMAJOR_AXIS":"6917.875","ELEMENT_SET_NO":"999","FILE":"3770429","MEAN_ANOMALY":"266.9020","CLASSIFICATION_TYPE":"U","DECAY_DATE":null},{"ELEMENT_SET_NO":"999","FILE":"3770323","RCS_SIZE":"LARGE","MEAN_MOTION_DOT":"0.00000991","TLE_LINE2":"2 52001  53.2170  53.3144 0001589  93.7984 266.3190 15.08838523 50286","SEMIMAJOR_AXIS":"6917.885","DECAY_DATE":null,"MEAN_ANOMALY":"266.3190","CLASSIFICATION_TYPE":"U","REF_FRAME":"TEME","EPHEMERIS_TYPE":"0","TLE_LINE1":"1 52001U 22025AX  23034.37386762  .00000991  00000-0  80335-4 0  9995","OBJECT_NAME":"STARLINK-3659","APOAPSIS":"540.849","PERIOD":"95.438","RA_OF_ASC_NODE":"53.3144","EPOCH":"2023-02-03T08:58:22.162368","MEAN_ELEMENT_THEORY":"SGP4","GP_ID":"224312768","SITE":"AFETR","COUNTRY_CODE":"US","MEAN_MOTION_DDOT":"0.0000000000000","MEAN_MOTION":"15.08838523","PERIAPSIS":"538.651","CENTER_NAME":"EARTH","ECCENTRICITY":"0.00015890","TIME_SYSTEM":"UTC","NORAD_CAT_ID":"52001","ARG_OF_PERICENTER":"93.7984","LAUNCH_DATE":"2022-03-09","REV_AT_EPOCH":"5028","INCLINATION":"53.2170","BSTAR":"0.00008033500000","OBJECT_TYPE":"PAYLOAD","OBJECT_ID":"2022-025AX"},{"CLASSIFICATION_TYPE":"U","MEAN_ANOMALY":"269.8177","DECAY_DATE":null,"TLE_LINE2":"2 52002  53.2173  53.3276 0001419  90.2977 269.8177 15.08846145 51791","SEMIMAJOR_AXIS":"6917.862","RCS_SIZE":"LARGE","MEAN_MOTION_DOT":"0.00001241","ELEMENT_SET_NO":"999","FILE":"3770433","RA_OF_ASC_NODE":"53.3276","PERIOD":"95.437","OBJECT_NAME":"STARLINK-3668","APOAPSIS":"540.708","EPHEMERIS_TYPE":"0","TLE_LINE1":"1 52002U 22025AY  23034.37018332  .00001241  00000-0  96025-4 0  9993","REF_FRAME":"TEME","PERIAPSIS":"538.745","CENTER_NAME":"EARTH","MEAN_MOTION":"15.08846145","MEAN_MOTION_DDOT":"0.0000000000000","COUNTRY_CODE":"US","EPOCH":"2023-02-03T08:53:03.838848","GP_ID":"224317388","MEAN_ELEMENT_THEORY":"SGP4","SITE":"AFETR","OBJECT_ID":"2022-025AY","OBJECT_TYPE":"PAYLOAD","INCLINATION":"53.2173","BSTAR":"0.00009602500000","REV_AT_EPOCH":"5179","ARG_OF_PERICENTER":"90.2977","LAUNCH_DATE":"2022-03-09","NORAD_CAT_ID":"52002","TIME_SYSTEM":"UTC","ECCENTRICITY":"0.00014190"},{"OBJECT_TYPE":"PAYLOAD","OBJECT_ID":"2022-025AZ","BSTAR":"0.00056020000000","INCLINATION":"53.2147","REV_AT_EPOCH":"5028","LAUNCH_DATE":"2022-03-09","ARG_OF_PERICENTER":"98.9409","NORAD_CAT_ID":"52003","TIME_SYSTEM":"UTC","ECCENTRICITY":"0.00012210","CENTER_NAME":"EARTH","PERIAPSIS":"538.880","MEAN_MOTION":"15.08846735","MEAN_MOTION_DDOT":"0.0000000000000","COUNTRY_CODE":"US","SITE":"AFETR","GP_ID":"224313271","MEAN_ELEMENT_THEORY":"SGP4","EPOCH":"2023-02-03T08:47:45.960288","RA_OF_ASC_NODE":"53.3469","PERIOD":"95.437","APOAPSIS":"540.569","OBJECT_NAME":"STARLINK-3654","TLE_LINE1":"1 52003U 22025AZ  23034.36650417  .00008641  00000-0  56020-3 0  9990","EPHEMERIS_TYPE":"0","REF_FRAME":"TEME","CLASSIFICATION_TYPE":"U","MEAN_ANOMALY":"261.1721","DECAY_DATE":null,"SEMIMAJOR_AXIS":"6917.860","TLE_LINE2":"2 52003  53.2147  53.3469 0001221  98.9409 261.1721 15.08846735 50281","MEAN_MOTION_DOT":"0.00008641","RCS_SIZE":"LARGE","FILE":"3770323","ELEMENT_SET_NO":"999"},{"PERIOD":"95.383","RA_OF_ASC_NODE":"13.1951","TLE_LINE1":"1 52088U 22029A   23034.35042571  .00071727  00000-0  43756-2 0  9998","EPHEMERIS_TYPE":"0","REF_FRAME":"TEME","OBJECT_NAME":"STARLINK-3537","APOAPSIS":"538.291","DECAY_DATE":null,"CLASSIFICATION_TYPE":"U","MEAN_ANOMALY":"262.7419","FILE":"3770323","ELEMENT_SET_NO":"999","SEMIMAJOR_AXIS":"6915.264","TLE_LINE2":"2 52088  53.2209  13.1951 0001680  97.3764 262.7419 15.09696471 51552","MEAN_MOTION_DOT":"0.00071727","RCS_SIZE":"LARGE","REV_AT_EPOCH":"5155","LAUNCH_DATE":"2022-03-19","ARG_OF_PERICENTER":"97.3764","OBJECT_ID":"2022-029A","OBJECT_TYPE":"PAYLOAD","BSTAR":"0.00437560000000","INCLINATION":"53.2209","ECCENTRICITY":"0.00016800","NORAD_CAT_ID":"52088","TIME_SYSTEM":"UTC","MEAN_MOTION":"15.09696471","MEAN_MOTION_DDOT":"0.0000000000000","CENTER_NAME":"EARTH","PERIAPSIS":"535.967","MEAN_ELEMENT_THEORY":"SGP4","GP_ID":"224313526","SITE":"AFETR","EPOCH":"2023-02-03T08:24:36.781344","COUNTRY_CODE":"US"},{"ECCENTRICITY":"0.00014580","TIME_SYSTEM":"UTC","NORAD_CAT_ID":"52089","ARG_OF_PERICENTER":"93.2413","LAUNCH_DATE":"2022-03-19","REV_AT_EPOCH":"5001","INCLINATION":"53.2170","BSTAR":"-0.00001923100000","OBJECT_ID":"2022-029B","OBJECT_TYPE":"PAYLOAD","EPOCH":"2023-02-03T08:54:24.053472","SITE":"AFETR","GP_ID":"224313777","MEAN_ELEMENT_THEORY":"SGP4","COUNTRY_CODE":"US","MEAN_MOTION_DDOT":"0.0000000000000","MEAN_MOTION":"15.08833556","PERIAPSIS":"538.756","CENTER_NAME":"EARTH","REF_FRAME":"TEME","EPHEMERIS_TYPE":"0","TLE_LINE1":"1 52089U 22029B   23034.37111173 -.00000594  00000-0 -19231-4 0  9995","OBJECT_NAME":"STARLINK-3722","APOAPSIS":"540.774","PERIOD":"95.438","RA_OF_ASC_NODE":"123.3150","ELEMENT_SET_NO":"999","FILE":"3770323","RCS_SIZE":"LARGE","MEAN_MOTION_DOT":"-0.00000594","TLE_LINE2":"2 52089  53.2170 123.3150 0001458  93.2413 266.8746 15.08833556 50018","SEMIMAJOR_AXIS":"6917.900","DECAY_DATE":null,"MEAN_ANOMALY":"266.8746","CLASSIFICATION_TYPE":"U"},{"OBJECT_NAME":"STARLINK-3712","APOAPSIS":"540.779","EPHEMERIS_TYPE":"0","TLE_LINE1":"1 52090U 22029C   23034.29383149 -.00000566  00000-0 -17466-4 0  9999","REF_FRAME":"TEME","RA_OF_ASC_NODE":"123.6636","PERIOD":"95.438","TLE_LINE2":"2 52090  53.2192 123.6636 0001465 107.3263 252.7889 15.08833371 50000","SEMIMAJOR_AXIS":"6917.901","RCS_SIZE":"LARGE","MEAN_MOTION_DOT":"-0.00000566","ELEMENT_SET_NO":"999","FILE":"3770323","CLASSIFICATION_TYPE":"U","MEAN_ANOMALY":"252.7889","DECAY_DATE":null,"NORAD_CAT_ID":"52090","TIME_SYSTEM":"UTC","ECCENTRICITY":"0.00014650","OBJECT_ID":"2022-029C","OBJECT_TYPE":"PAYLOAD","INCLINATION":"53.2192","BSTAR":"-0.00001746600000","REV_AT_EPOCH":"5000","LAUNCH_DATE":"2022-03-19","ARG_OF_PERICENTER":"107.3263","COUNTRY_CODE":"US","EPOCH":"2023-02-03T07:03:07.040736","GP_ID":"224312525","MEAN_ELEMENT_THEORY":"SGP4","SITE":"AFETR","PERIAPSIS":"538.752","CENTER_NAME":"EARTH","MEAN_MOTION":"15.08833371","MEAN_MOTION_DDOT":"0.0000000000000"},{"COUNTRY_CODE":"US","GP_ID":"224312775","SITE":"AFETR","MEAN_ELEMENT_THEORY":"SGP4","EPOCH":"2023-02-03T05:38:19.835520","CENTER_NAME":"EARTH","PERIAPSIS":"538.752","MEAN_MOTION":"15.08829216","MEAN_MOTION_DDOT":"0.0000000000000","NORAD_CAT_ID":"52091","TIME_SYSTEM":"UTC","ECCENTRICITY":"0.00014840","OBJECT_TYPE":"PAYLOAD","OBJECT_ID":"2022-029D","BSTAR":"-0.00003341300000","INCLINATION":"53.2159","REV_AT_EPOCH":"4999","ARG_OF_PERICENTER":"90.3002","LAUNCH_DATE":"2022-03-19","SEMIMAJOR_AXIS":"6917.913","TLE_LINE2":"2 52091  53.2159 123.9336 0001484  90.3002 269.8160 15.08829216 49997","MEAN_MOTION_DOT":"-0.00000820","RCS_SIZE":"MEDIUM","FILE":"3770323","ELEMENT_SET_NO":"999","CLASSIFICATION_TYPE":"U","MEAN_ANOMALY":"269.8160","DECAY_DATE":null,"OBJECT_NAME":"STARLINK-3713","APOAPSIS":"540.805","TLE_LINE1":"1 52091U 22029D   23034.23495180 -.00000820  00000-0 -33413-4 0  9996","EPHEMERIS_TYPE":"0","REF_FRAME":"TEME","RA_OF_ASC_NODE":"123.9336","PERIOD":"95.438"},{"NORAD_CAT_ID":"52092","TIME_SYSTEM":"UTC","ECCENTRICITY":"0.00011750","OBJECT_ID":"2022-029E","OBJECT_TYPE":"PAYLOAD","INCLINATION":"53.2166","BSTAR":"0.00001890100000","REV_AT_EPOCH":"5000","LAUNCH_DATE":"2022-03-19","ARG_OF_PERICENTER":"84.8927","COUNTRY_CODE":"US","EPOCH":"2023-02-03T07:08:25.299456","GP_ID":"224313027","MEAN_ELEMENT_THEORY":"SGP4","SITE":"AFETR","PERIAPSIS":"538.966","CENTER_NAME":"EARTH","MEAN_MOTION":"15.08829061","MEAN_MOTION_DDOT":"0.0000000000000","OBJECT_NAME":"STARLINK-3716","APOAPSIS":"540.592","EPHEMERIS_TYPE":"0","TLE_LINE1":"1 52092U 22029E   23034.29751504  .00000013  00000-0  18901-4 0  9995","REF_FRAME":"TEME","RA_OF_ASC_NODE":"123.6542","PERIOD":"95.438","TLE_LINE2":"2 52092  53.2166 123.6542 0001175  84.8927 275.2199 15.08829061 50008","SEMIMAJOR_AXIS":"6917.914","RCS_SIZE":"LARGE","MEAN_MOTION_DOT":"0.00000013","ELEMENT_SET_NO":"999","FILE":"3770323","CLASSIFICATION_TYPE":"U","MEAN_ANOMALY":"275.2199","DECAY_DATE":null},{"PERIAPSIS":"538.916","CENTER_NAME":"EARTH","MEAN_MOTION":"15.08839672","MEAN_MOTION_DDOT":"0.0000000000000","COUNTRY_CODE":"US","EPOCH":"2023-02-03T08:27:54.487008","GP_ID":"224313278","SITE":"AFETR","MEAN_ELEMENT_THEORY":"SGP4","OBJECT_ID":"2022-029F","OBJECT_TYPE":"PAYLOAD","INCLINATION":"53.2169","BSTAR":"0.00010124000000","REV_AT_EPOCH":"5001","LAUNCH_DATE":"2022-03-19","ARG_OF_PERICENTER":"80.8230","NORAD_CAT_ID":"52093","TIME_SYSTEM":"UTC","ECCENTRICITY":"0.00012000","CLASSIFICATION_TYPE":"U","MEAN_ANOMALY":"279.2898","DECAY_DATE":null,"TLE_LINE2":"2 52093  53.2169 123.4097 0001200  80.8230 279.2898 15.08839672 50017","SEMIMAJOR_AXIS":"6917.881","RCS_SIZE":"LARGE","MEAN_MOTION_DOT":"0.00001324","ELEMENT_SET_NO":"999","FILE":"3770323","RA_OF_ASC_NODE":"123.4097","PERIOD":"95.438","APOAPSIS":"540.577","OBJECT_NAME":"STARLINK-3673","EPHEMERIS_TYPE":"0","TLE_LINE1":"1 52093U 22029F   23034.35271397  .00001324  00000-0  10124-3 0  9994","REF_FRAME":"TEME"}];
